HST                     
1 20580U 90037B   26068.15977042  .00009063  00000+0  30023-3 0  9999
2 20580  28.4717  43.6133 0001837 120.9992 239.0785 15.29473555773239
STARLINK-32315          
1 60740U 24152W   26068.72131845  .00000595  00000+0  32205-4 0  9998
2 60740  53.1585 268.4287 0001054 105.4524 254.6593 15.30191064 86721
